{"type": "FeatureCollection", "features": [ {"type": "Feature", "properties": {"norad_id": 60989, "name": "SENTINEL-2C", "group": "resource", "lat": 52.72386528203657, "lon": -98.92439855190463, "alt_km": 783.3058034567603, "timestamp": "2025-12-23T07:45:09.054567+00:00", "meta": {"OBJECT_NAME": "SENTINEL-2C", "OBJECT_ID": "2024-157A", "EPOCH": "2025-12-22T16:03:33.313248", "MEAN_MOTION": 14.30821394, "ECCENTRICITY": 0.00011973, "INCLINATION": 98.5671, "RA_OF_ASC_NODE": 69.0082, "ARG_OF_PERICENTER": 95.1447, "MEAN_ANOMALY": 264.9872, "EPHEMERIS_TYPE": 0, "CLASSIFICATION_TYPE": "U", "NORAD_CAT_ID": 60989, "ELEMENT_SET_NO": 999, "REV_AT_EPOCH": 6774, "BSTAR": 7.0243627e-05, "MEAN_MOTION_DOT": 1.41e-06, "MEAN_MOTION_DDOT": 0}, "tle": {"line1": "1 60989U 24157A   25356.66913557  .00000141  00000+0  70244-4 0  9990", "line2": "2 60989  98.5671  69.0082 0001197  95.1447 264.9872 14.30821394 67740"}}, "geometry": {"type": "Point", "coordinates": [-98.92439855190463, 52.72386528203657]}}, {"type": "Feature", "properties": {"norad_id": 61735, "name": "IONOSFERA-M 1", "group": "resource", "lat": 79.67917894454271, "lon": 169.4401616107283, "alt_km": 808.7120785032539, "timestamp": "2025-12-23T07:45:09.054577+00:00", "meta": {"OBJECT_NAME": "IONOSFERA-M 1", "OBJECT_ID": "2024-199A", "EPOCH": "2025-12-22T22:55:03.143136", "MEAN_MOTION": 14.22716224, "ECCENTRICITY": 4.565e-05, "INCLINATION": 98.7404, "RA_OF_ASC_NODE": 226.7244, "ARG_OF_PERICENTER": 7.4981, "MEAN_ANOMALY": 352.6203, "EPHEMERIS_TYPE": 0, "CLASSIFICATION_TYPE": "U", "NORAD_CAT_ID": 61735, "ELEMENT_SET_NO": 999, "REV_AT_EPOCH": 10264, "BSTAR": 4.8619131e-05, "MEAN_MOTION_DOT": 6.5e-07, "MEAN_MOTION_DDOT": 0}, "tle": {"line1": "1 61735U 24199A   25356.95489749  .00000065  00000+0  48619-4 0  9995", "line2": "2 61735  98.7404 226.7244 0000456   7.4981 352.6203 14.22716224102642"}}, "geometry": {"type": "Point", "coordinates": [169.4401616107283, 79.67917894454271]}}, {"type": "Feature", "properties": {"norad_id": 61736, "name": "IONOSFERA-M 2", "group": "resource", "lat": -80.83878760358651, "lon": -25.521101591849153, "alt_km": 824.8077049874728, "timestamp": "2025-12-23T07:45:09.054587+00:00", "meta": {"OBJECT_NAME": "IONOSFERA-M 2", "OBJECT_ID": "2024-199B", "EPOCH": "2025-12-22T22:03:39.028608", "MEAN_MOTION": 14.22718382, "ECCENTRICITY": 0.00018385, "INCLINATION": 98.7395, "RA_OF_ASC_NODE": 226.6013, "ARG_OF_PERICENTER": 97.5129, "MEAN_ANOMALY": 262.6258, "EPHEMERIS_TYPE": 0, "CLASSIFICATION_TYPE": "U", "NORAD_CAT_ID": 61736, "ELEMENT_SET_NO": 999, "REV_AT_EPOCH": 10576, "BSTAR": 4.5495859e-05, "MEAN_MOTION_DOT": 5.8e-07, "MEAN_MOTION_DDOT": 0}, "tle": {"line1": "1 61736U 24199B   25356.91920172  .00000058  00000+0  45496-4 0  9994", "line2": "2 61736  98.7395 226.6013 0001838  97.5129 262.6258 14.22718382105767"}}, "geometry": {"type": "Point", "coordinates": [-25.521101591849153, -80.83878760358651]}}, {"type": "Feature", "properties": {"norad_id": 63772, "name": "BIOMASS", "group": "resource", "lat": 4.018101919118998, "lon": -178.39295206780847, "alt_km": 671.1976221844061, "timestamp": "2025-12-23T07:45:09.054597+00:00", "meta": {"OBJECT_NAME": "BIOMASS", "OBJECT_ID": "2025-090A", "EPOCH": "2025-12-22T12:05:51.393984", "MEAN_MOTION": 14.67537759, "ECCENTRICITY": 0.00010953, "INCLINATION": 98.0697, "RA_OF_ASC_NODE": 181.3714, "ARG_OF_PERICENTER": 82.1383, "MEAN_ANOMALY": 277.9946, "EPHEMERIS_TYPE": 0, "CLASSIFICATION_TYPE": "U", "NORAD_CAT_ID": 63772, "ELEMENT_SET_NO": 999, "REV_AT_EPOCH": 3477, "BSTAR": 0.00022198106, "MEAN_MOTION_DOT": 1.211e-05, "MEAN_MOTION_DDOT": 0}, "tle": {"line1": "1 63772U 25090A   25356.50406706  .00001211  00000+0  22198-3 0  9999", "line2": "2 63772  98.0697 181.3714 0001095  82.1383 277.9946 14.67537759 34770"}}, "geometry": {"type": "Point", "coordinates": [-178.39295206780847, 4.018101919118998]}}, {"type": "Feature", "properties": {"norad_id": 64694, "name": "GOSAT-GW (IBUKI GW)", "group": "resource", "lat": -34.40937956380125, "lon": 107.08599964211045, "alt_km": 675.7537187716607, "timestamp": "2025-12-23T07:45:09.054606+00:00", "meta": {"OBJECT_NAME": "GOSAT-GW (IBUKI GW)", "OBJECT_ID": "2025-141A", "EPOCH": "2025-12-22T22:35:44.149344", "MEAN_MOTION": 14.67564805, "ECCENTRICITY": 0.00014288, "INCLINATION": 98.0438, "RA_OF_ASC_NODE": 292.2699, "ARG_OF_PERICENTER": 84.1385, "MEAN_ANOMALY": 275.9983, "EPHEMERIS_TYPE": 0, "CLASSIFICATION_TYPE": "U", "NORAD_CAT_ID": 64694, "ELEMENT_SET_NO": 999, "REV_AT_EPOCH": 2599, "BSTAR": 0.00017975921, "MEAN_MOTION_DOT": 9.72e-06, "MEAN_MOTION_DDOT": 0}, "tle": {"line1": "1 64694U 25141A   25356.94148321  .00000972  00000+0  17976-3 0  9995", "line2": "2 64694  98.0438 292.2699 0001428  84.1385 275.9983 14.67564805 25990"}}, "geometry": {"type": "Point", "coordinates": [107.08599964211045, -34.40937956380125]}}, {"type": "Feature", "properties": {"norad_id": 64876, "name": "IONOSFERA-M 3", "group": "resource", "lat": -78.84330523627473, "lon": 88.93975586893929, "alt_km": 828.8482954387846, "timestamp": "2025-12-23T07:45:09.054617+00:00", "meta": {"OBJECT_NAME": "IONOSFERA-M 3", "OBJECT_ID": "2025-155A", "EPOCH": "2025-12-22T23:45:43.733664", "MEAN_MOTION": 14.21443453, "ECCENTRICITY": 0.00019218, "INCLINATION": 98.5797, "RA_OF_ASC_NODE": 318.5667, "ARG_OF_PERICENTER": 43.1469, "MEAN_ANOMALY": 316.9859, "EPHEMERIS_TYPE": 0, "CLASSIFICATION_TYPE": "U", "NORAD_CAT_ID": 64876, "ELEMENT_SET_NO": 999, "REV_AT_EPOCH": 2137, "BSTAR": 5.6633284e-05, "MEAN_MOTION_DOT": 8.1e-07, "MEAN_MOTION_DDOT": 0}, "tle": {"line1": "1 64876U 25155A   25356.99008951  .00000081  00000+0  56633-4 0  9996", "line2": "2 64876  98.5797 318.5667 0001921  43.1469 316.9859 14.21443453 21379"}}, "geometry": {"type": "Point", "coordinates": [88.93975586893929, -78.84330523627473]}}, {"type": "Feature", "properties": {"norad_id": 64877, "name": "IONOSFERA-M 4", "group": "resource", "lat": 79.27164439371656, "lon": -94.01896509284339, "alt_km": 812.2630613907004, "timestamp": "2025-12-23T07:45:09.054627+00:00", "meta": {"OBJECT_NAME": "IONOSFERA-M 4", "OBJECT_ID": "2025-155B", "EPOCH": "2025-12-22T22:54:51.003936", "MEAN_MOTION": 14.21444613, "ECCENTRICITY": 0.0001344, "INCLINATION": 98.5798, "RA_OF_ASC_NODE": 318.4518, "ARG_OF_PERICENTER": 53.6183, "MEAN_ANOMALY": 306.5118, "EPHEMERIS_TYPE": 0, "CLASSIFICATION_TYPE": "U", "NORAD_CAT_ID": 64877, "ELEMENT_SET_NO": 999, "REV_AT_EPOCH": 2136, "BSTAR": 5.5848241e-05, "MEAN_MOTION_DOT": 7.9e-07, "MEAN_MOTION_DDOT": 0}, "tle": {"line1": "1 64877U 25155B   25356.95475699  .00000079  00000+0  55848-4 0  9994", "line2": "2 64877  98.5798 318.4518 0001344  53.6183 306.5118 14.21444613 21364"}}, "geometry": {"type": "Point", "coordinates": [-94.01896509284339, 79.27164439371656]}}, {"type": "Feature", "properties": {"norad_id": 64899, "name": "MICROCARB", "group": "resource", "lat": 3.3326566967830344, "lon": 72.02894004770076, "alt_km": 661.1083464531321, "timestamp": "2025-12-23T07:45:09.054637+00:00", "meta": {"OBJECT_NAME": "MICROCARB", "OBJECT_ID": "2025-156A", "EPOCH": "2025-12-22T17:03:18.704160", "MEAN_MOTION": 14.72072327, "ECCENTRICITY": 0.00175822, "INCLINATION": 98.0013, "RA_OF_ASC_NODE": 71.8958, "ARG_OF_PERICENTER": 114.8411, "MEAN_ANOMALY": 245.4627, "EPHEMERIS_TYPE": 0, "CLASSIFICATION_TYPE": "U", "NORAD_CAT_ID": 64899, "ELEMENT_SET_NO": 999, "REV_AT_EPOCH": 2200, "BSTAR": 0.00010758521, "MEAN_MOTION_DOT": 6.28e-06, "MEAN_MOTION_DDOT": 0}, "tle": {"line1": "1 64899U 25156A   25356.71063315  .00000628  00000+0  10759-3 0  9992", "line2": "2 64899  98.0013  71.8958 0017582 114.8411 245.4627 14.72072327 22009"}}, "geometry": {"type": "Point", "coordinates": [72.02894004770076, 3.3326566967830344]}}, {"type": "Feature", "properties": {"norad_id": 64900, "name": "CO3D 3", "group": "resource", "lat": 74.14696326937047, "lon": 46.16332600742813, "alt_km": 497.2500216450462, "timestamp": "2025-12-23T07:45:09.054647+00:00", "meta": {"OBJECT_NAME": "CO3D 3", "OBJECT_ID": "2025-156B", "EPOCH": "2025-12-22T21:56:28.224384", "MEAN_MOTION": 15.20195162, "ECCENTRICITY": 0.00013441, "INCLINATION": 97.4341, "RA_OF_ASC_NODE": 73.1354, "ARG_OF_PERICENTER": 72.3261, "MEAN_ANOMALY": 287.8121, "EPHEMERIS_TYPE": 0, "CLASSIFICATION_TYPE": "U", "NORAD_CAT_ID": 64900, "ELEMENT_SET_NO": 999, "REV_AT_EPOCH": 2275, "BSTAR": 0.00030461711, "MEAN_MOTION_DOT": 6.531e-05, "MEAN_MOTION_DDOT": 0}, "tle": {"line1": "1 64900U 25156B   25356.91421556  .00006531  00000+0  30462-3 0  9994", "line2": "2 64900  97.4341  73.1354 0001344  72.3261 287.8121 15.20195162 22752"}}, "geometry": {"type": "Point", "coordinates": [46.16332600742813, 74.14696326937047]}}, {"type": "Feature", "properties": {"norad_id": 64901, "name": "CO3D 4", "group": "resource", "lat": 73.44223464964969, "lon": 47.48762865495455, "alt_km": 498.095485238895, "timestamp": "2025-12-23T07:45:09.054656+00:00", "meta": {"OBJECT_NAME": "CO3D 4", "OBJECT_ID": "2025-156C", "EPOCH": "2025-12-22T17:12:19.854144", "MEAN_MOTION": 15.20218181, "ECCENTRICITY": 0.00013582, "INCLINATION": 97.4339, "RA_OF_ASC_NODE": 72.9412, "ARG_OF_PERICENTER": 164.3046, "MEAN_ANOMALY": 195.8231, "EPHEMERIS_TYPE": 0, "CLASSIFICATION_TYPE": "U", "NORAD_CAT_ID": 64901, "ELEMENT_SET_NO": 999, "REV_AT_EPOCH": 2272, "BSTAR": 0.00027567855, "MEAN_MOTION_DOT": 5.908e-05, "MEAN_MOTION_DDOT": 0}, "tle": {"line1": "1 64901U 25156C   25356.71689646  .00005908  00000+0  27568-3 0  9999", "line2": "2 64901  97.4339  72.9412 0001358 164.3046 195.8231 15.20218181 22724"}}, "geometry": {"type": "Point", "coordinates": [47.48762865495455, 73.44223464964969]}}]}